NOOR-2                  
1 51954U 22024A   22091.24583863  .00008321  00000+0  38527-3 0  9998
2 51954  58.2899  48.2906 0013631 287.7183  40.6565 15.20864114  3647
QASED R/B               
1 51955U 22024B   22091.30984058  .00007475  00000+0  34350-3 0  9996
2 51955  58.2949  47.9661 0011239 303.3087  56.6896 15.21288581  3652
STARLINK-3700           
1 51956U 22025A   22090.91667824  .00038730  00000+0  27854-3 0  9992
2 51956  53.2184  29.1522 0001387 109.4159 329.5553 15.73246656  3718
STARLINK-3694           
1 51957U 22025B   22090.91667824  .00069668  00000+0  49536-3 0  9998
2 51957  53.2186  29.1448 0001288 124.1488 317.9817 15.73263056  3714
STARLINK-3692           
1 51958U 22025C   22090.91667824 -.00025305  00000+0 -17604-3 0  9992
2 51958  53.2183  29.1511 0001351 121.2079 318.3219 15.73249721  3712
STARLINK-3704           
1 51959U 22025D   22090.91667824  .00030149  00000+0  21783-3 0  9996
2 51959  53.2185  29.1463 0001419 118.6569 322.8140 15.73267510  3719
STARLINK-3691           
1 51960U 22025E   22090.91667824  .00041825  00000+0  30022-3 0  9997
2 51960  53.2186  29.1445 0001190 126.7382 316.0227 15.73256279  3712
STARLINK-3689           
1 51961U 22025F   22090.91667824 -.00031898  00000+0 -22298-3 0  9995
2 51961  53.2181  29.1487 0001343 119.8615 320.4003 15.73276381  3713
STARLINK-3697           
1 51962U 22025G   22090.91667824  .00058783  00000+0  41964-3 0  9997
2 51962  53.2183  29.1425 0001577 125.2781 318.7748 15.73237711  3712
STARLINK-3675           
1 51963U 22025H   22091.16668981 -.00045307  00000+0 -31887-3 0  9994
2 51963  53.2183  27.9120 0001093 118.5103 299.1922 15.73292515  4829
STARLINK-3690           
1 51964U 22025J   22091.33334491 -.00029645  00000+0 -20668-3 0  9992
2 51964  53.2183  27.0776 0000934  98.9427 188.2719 15.73298176  4855
STARLINK-3696           
1 51965U 22025K   22091.33334491 -.00027463  00000+0 -19142-3 0  9994
2 51965  53.2179  27.0823 0001232 119.8724 164.8417 15.73257937  4854
STARLINK-3699           
1 51966U 22025L   22091.33334491 -.00034970  00000+0 -24501-3 0  9991
2 51966  53.2185  27.0752 0001101 104.3825 184.1330 15.73273688  4859
STARLINK-3695           
1 51967U 22025M   22091.33334491 -.00077379  00000+0 -54959-3 0  9992
2 51967  53.2182  27.0799 0001331 117.4135 168.5793 15.73301183  4875
STARLINK-3681           
1 51968U 22025N   22090.91667824  .00073777  00000+0  52537-3 0  9991
2 51968  53.2189  29.1329 0001379 107.9035 340.6468 15.73204870  3719
STARLINK-3680           
1 51969U 22025P   22090.91667824 -.00001262  00000+0 -45545-5 0  9997
2 51969  53.2185  29.1390 0001138 107.6067 337.7371 15.73281841  3712
STARLINK-3677           
1 51970U 22025Q   22090.91667824  .00075606  00000+0  53821-3 0  9994
2 51970  53.2189  29.1310 0001230 100.7227 349.0751 15.73202940  3716
STARLINK-3669           
1 51971U 22025R   22091.33334491 -.00031290  00000+0 -21852-3 0  9995
2 51971  53.2183  27.0767 0001256 109.6939 178.1309 15.73288575  4876
STARLINK-3671           
1 51972U 22025S   22091.33334491 -.00048468  00000+0 -34185-3 0  9994
2 51972  53.2189  27.0678 0001121 100.9507 191.4293 15.73272656  4862
STARLINK-3679           
1 51973U 22025T   22090.91667824  .00036133  00000+0  26023-3 0  9993
2 51973  53.2187  29.1313 0001329 100.2915 348.8638 15.73247797  3718
STARLINK-3672           
1 51974U 22025U   22091.33334491 -.00048928  00000+0 -34525-3 0  9995
2 51974  53.2182  26.3600 0001469 123.0979 156.1255 15.73264803  4869
STARLINK-3674           
1 51975U 22025V   22090.91667824  .00035307  00000+0  25444-3 0  9993
2 51975  53.2188  29.1251 0001142 108.3229 344.0160 15.73244453  3716
STARLINK-3663           
1 51976U 22025W   22091.33334491 -.00046708  00000+0 -32895-3 0  9999
2 51976  53.2182  27.0674 0001111  84.0765 208.8764 15.73290678  4862
STARLINK-3660           
1 51977U 22025X   22091.33334491 -.00025346  00000+0 -17647-3 0  9993
2 51977  53.2184  26.3595 0001167 101.7231 176.8489 15.73232452  4869
STARLINK-3666           
1 51978U 22025Y   22090.91667824  .00072529  00000+0  51652-3 0  9993
2 51978  53.2198  29.1210 0001183 105.8195 349.0795 15.73209905  3716
STARLINK-3656           
1 51979U 22025Z   22090.91667824  .00034862  00000+0  25140-3 0  9995
2 51979  53.2195  29.1291 0001045 108.3827 342.1082 15.73235446  3712
STARLINK-3649           
1 51980U 22025AA  22091.16668981 -.00031474  00000+0 -21973-3 0  9998
2 51980  53.2198  27.8826 0001161  92.4777 340.5045 15.73300019  4825
STARLINK-3635           
1 51981U 22025AB  22091.16668981 -.00048078  00000+0 -33885-3 0  9992
2 51981  53.2195  27.8889 0001281  98.1437 331.6764 15.73285301  4837
STARLINK-3650           
1 51982U 22025AC  22091.16668981 -.00022321  00000+0 -15445-3 0  9998
2 51982  53.2181  27.8817 0001205  90.7307 342.9046 15.73288441  4830
STARLINK-3655           
1 51983U 22025AD  22091.16668981 -.00005650  00000+0 -35748-4 0  9994
2 51983  53.2181  27.8867 0001388  91.1935 339.9346 15.73273303  4852
STARLINK-3664           
1 51984U 22025AE  22090.91667824  .00058217  00000+0  41544-3 0  9997
2 51984  53.2185  29.1122 0001039 102.1408 356.5857 15.73251134  3711
STARLINK-3651           
1 51985U 22025AF  22090.91667824  .00061590  00000+0  44017-3 0  9994
2 51985  53.2195  29.1186 0001172 108.6306 346.8934 15.73193227  3715
STARLINK-3645           
1 51986U 22025AG  22090.91667824  .00058190  00000+0  41534-3 0  9998
2 51986  53.2186  29.1109 0001263 117.8376 342.1791 15.73246154  3719
STARLINK-3644           
1 51987U 22025AH  22091.16668981 -.01008860  00000+0 -78032-2 0  9996
2 51987  53.2189  27.8739 0001217 103.1023 331.1055 15.73631443  4826
STARLINK-3640           
1 51988U 22025AJ  22090.91667824  .00025019  00000+0  18179-3 0  9993
2 51988  53.2187  29.1098 0001166 122.4311 338.2268 15.73245791  3713
STARLINK-3642           
1 51989U 22025AK  22091.16668981 -.00364764  00000+0 -26836-2 0  9990
2 51989  53.2194  27.8746 0001328  80.5437 354.3070 15.73417268  4834
STARLINK-3657           
1 51990U 22025AL  22090.91667824  .00054349  00000+0  38879-3 0  9993
2 51990  53.2179  29.1072 0001388 105.3739 356.5748 15.73221710  3710
STARLINK-3652           
1 51991U 22025AM  22091.16668981  .00010972  00000+0  82294-4 0  9992
2 51991  53.2193  27.8741 0001359  89.4759 346.7563 15.73257160  4824
STARLINK-3643           
1 51992U 22025AN  22091.16668981  .00013161  00000+0  97799-4 0  9992
2 51992  53.2179  27.8676 0001227 106.0352 334.6862 15.73259185  4844
STARLINK-3648           
1 51993U 22025AP  22090.91667824  .00062709  00000+0  44795-3 0  9999
2 51993  53.2196  29.1073 0001103 101.8164 359.4610 15.73197314  3713
STARLINK-3647           
1 51994U 22025AQ  22090.91667824 -.00008227  00000+0 -54060-4 0  9994
2 51994  53.2181  29.1024 0001346 109.6193 354.8860 15.73283330  3711
STARLINK-3636           
1 51995U 22025AR  22091.16668981 -.00004881  00000+0 -30263-4 0  9999
2 51995  53.2188  27.8702 0001263  97.6972 341.6670 15.73286952  4825
STARLINK-3538           
1 51996U 22025AS  22091.16668981 -.00008277  00000+0 -54457-4 0  9994
2 51996  53.2182  27.8652 0001052  89.5350 352.4302 15.73268742  4830
STARLINK-3589           
1 51997U 22025AT  22090.91667824  .00069878  00000+0  49718-3 0  9997
2 51997  53.2186  29.1040 0001495 109.6979 353.5308 15.73246354  3712
STARLINK-3618           
1 51998U 22025AU  22090.91667824 -.00038120  00000+0 -26781-3 0  9991
2 51998  53.2183  29.0983 0001179 107.8971 358.6015 15.73252911  3713
STARLINK-3667           
1 51999U 22025AV  22091.16668981 -.00043995  00000+0 -30947-3 0  9990
2 51999  53.2180  27.8635 0001240  94.6591 347.9168 15.73291571  4829
STARLINK-3653           
1 52000U 22025AW  22091.16668981 -.00047953  00000+0 -33795-3 0  9996
2 52000  53.2186  27.8604 0001260 106.5490 337.9776 15.73285581  4848
STARLINK-3659           
1 52001U 22025AX  22090.91667824  .00075455  00000+0  53683-3 0  9998
2 52001  53.2185  29.0963 0001472 107.9553 359.0836 15.73216985  3719
STARLINK-3668           
1 52002U 22025AY  22091.16668981 -.00038071  00000+0 -26706-3 0  9993
2 52002  53.2182  27.8592 0001058 103.6352 341.5594 15.73288370  4828
STARLINK-3654           
1 52003U 22025AZ  22090.91667824  .00071070  00000+0  50628-3 0  9995
2 52003  53.2196  29.0927 0001309 100.6292   8.3046 15.73211048  3714
FALCON 9 DEB            
1 52004U 22025BA  22091.10045839  .00444628  92362-4  10163-2 0  9993
2 52004  53.2283  26.1376 0005141 289.5042  70.5433 15.96850190  3753
FALCON 9 DEB            
1 52005U 22025BB  22091.09087869  .00486965  11116-3  10340-2 0  9995
2 52005  53.2238  26.0644 0006195 263.0112  97.0214 15.98157522  3758
FALCON 9 DEB            
1 52006U 22025BC  22091.07384357  .00436121  91769-4  87253-3 0  9996
2 52006  53.2220  25.9383 0008844 289.6845  70.3232 15.99182379  3751
FALCON 9 DEB            
1 52007U 22025BD  22091.07147613  .00450914  97535-4  90241-3 0  9993
2 52007  53.2194  25.9188 0009725 275.7838  84.2084 15.99157077  3758
2022-026A               
1 52008U 22026A   22090.73353988  .00018141  00000+0  83362-3 0  9995
2 52008  97.4877  91.7646 0048132 215.1770 144.6285 15.19374306  2442
SPACEBEE-121            
1 52009U 22026B   22090.52765406  .00014058  00000+0  77277-3 0  9996
2 52009  97.5030  91.4486 0028417 179.3356 180.7918 15.13849804  2391
SPACEBEE-114            
1 52010U 22026C   22091.25538494  .00014196  00000+0  78156-3 0  9994
2 52010  97.5042  92.1659 0027807 179.1806 180.9476 15.13805727  2517
SPACEBEE-126            
1 52011U 22026D   22091.25580757  .00013728  00000+0  75666-3 0  9997
2 52011  97.5029  92.1638 0028276 176.6236 183.5191 15.13760938  2506
SPACEBEE-118            
1 52012U 22026E   22090.72609698  .00018505  00000+0  10159-2 0  9998
2 52012  97.5043  91.6465 0027128 182.2503 177.8611 15.13864115  2437
